NORAD_CAT_ID,OBJECT_NAME,OBJECT_TYPE,EPOCH,MEAN_MOTION,ECCENTRICITY,INCLINATION,RA_OF_ASC_NODE,ARG_OF_PERICENTER,MEAN_ANOMALY,BSTAR,MEAN_MOTION_DOT,MEAN_MOTION_DDOT,TLE_LINE0,TLE_LINE1,TLE_LINE2,SEMIMAJOR_AXIS,PERIOD,APOGEE,PERIGEE,DECAYED
53563.0,STARLINK-4561,PAYLOAD,2023-03-22 16:12:24,15.08846554,0.0001541,53.2164,236.1833,76.2962,283.8202,0.00031499,4.73e-05,0.0,0 STARLINK-4561,1 53563U 22101AN  23081.67527945  .00004730  00000-0  31499-3 0  9990,2 53563  53.2164 236.1833 0001541  76.2962 283.8202 15.08846554 32943,6917.86,95.437,540.791,538.659,0.0
53563.0,STARLINK-4561,PAYLOAD,2023-03-23 03:20:05,15.08836394,8.95e-05,53.2164,234.1019,99.7839,260.3255,-0.00025653,-4.368e-05,0.0,0 STARLINK-4561,1 53563U 22101AN  23082.13895750 -.00004368  00000-0 -25653-3 0  9998,2 53563  53.2164 234.1019 0000895  99.7839 260.3255 15.08836394 33019,6917.891,95.438,540.376,539.137,0.0
53563.0,STARLINK-4561,PAYLOAD,2023-03-23 14:27:48,15.08839377,7.84e-05,53.2162,232.0209,97.325,262.7832,0.00067745,0.0001051,0.0,0 STARLINK-4561,1 53563U 22101AN  23082.60263926  .00010510  00000-0  67745-3 0  9996,2 53563  53.2162 232.0209 0000784  97.3250 262.7832 15.08839377 33081,6917.882,95.438,540.29,539.205,0.0
53563.0,STARLINK-4561,PAYLOAD,2023-03-23 17:38:34,15.08852843,0.0001266,53.2159,231.4277,88.1271,271.9866,0.0018217,0.00028834,0.0,0 STARLINK-4561,1 53563U 22101AN  23082.73512042  .00028834  00000-0  18217-2 0  9993,2 53563  53.2159 231.4277 0001266  88.1271 271.9866 15.08852843 33107,6917.841,95.437,540.582,538.83,0.0
53563.0,STARLINK-4561,PAYLOAD,2023-03-24 03:10:53,15.08910605,0.0001174,53.217,229.6427,74.751,285.3612,0.0066642,0.00107604,0.0,0 STARLINK-4561,1 53563U 22101AN  23083.13255790  .00107604  00000-0  66642-2 0  9990,2 53563  53.2170 229.6427 0001174  74.7510 285.3612 15.08910605 33166,6917.665,95.433,540.342,538.717,0.0
53563.0,STARLINK-4561,PAYLOAD,2023-03-24 14:18:33,15.08903814,0.0001477,53.2168,227.5601,79.1649,280.9509,0.0021818,0.00034667,0.0,0 STARLINK-4561,1 53563U 22101AN  23083.59622087  .00034667  00000-0  21818-2 0  9991,2 53563  53.2168 227.5601 0001477  79.1649 280.9509 15.08903814 33230,6917.685,95.434,540.572,538.529,0.0
53563.0,STARLINK-4561,PAYLOAD,2023-03-24 15:53:56,15.08910898,0.000141,53.2163,227.2637,78.6857,281.4293,0.0022378,0.00035576,0.0,0 STARLINK-4561,1 53563U 22101AN  23083.66245697  .00035576  00000-0  22378-2 0  9999,2 53563  53.2163 227.2637 0001410  78.6857 281.4293 15.08910898 33240,6917.664,95.433,540.504,538.553,0.0
53563.0,STARLINK-4561,PAYLOAD,2023-03-25 03:01:37,15.08887653,0.0001592,53.2169,225.1827,85.5113,274.6061,0.00098824,0.00015495,0.0,0 STARLINK-4561,1 53563U 22101AN  23084.12612909  .00015495  00000-0  98824-3 0  9993,2 53563  53.2169 225.1827 0001592  85.5113 274.6061 15.08887653 33314,6917.735,95.435,540.701,538.498,0.0
53563.0,STARLINK-4561,PAYLOAD,2023-03-25 12:33:56,15.08824914,0.0001251,53.2167,223.3993,100.198,259.9153,0.00090533,0.00014144,0.0,0 STARLINK-4561,1 53563U 22101AN  23084.52357590  .00014144  00000-0  90533-3 0  9998,2 53563  53.2167 223.3993 0001251 100.1980 259.9153 15.08824914 33379,6917.927,95.439,540.657,538.926,0.0
53563.0,STARLINK-4561,PAYLOAD,2023-03-25 20:30:52,15.08838225,0.0001472,53.2166,221.9107,107.9849,252.1304,0.0023466,0.00037254,0.0,0 STARLINK-4561,1 53563U 22101AN  23084.85477882  .00037254  00000-0  23466-2 0  9998,2 53563  53.2166 221.9107 0001472 107.9849 252.1304 15.08838225 33422,6917.886,95.438,540.769,538.733,0.0
53563.0,STARLINK-4561,PAYLOAD,2023-03-26 12:24:46,15.08800949,0.0001241,53.2172,218.9394,102.5485,257.5646,0.00095958,0.00015,0.0,0 STARLINK-4561,1 53563U 22101AN  23085.51720259  .00015000  00000-0  95958-3 0  9992,2 53563  53.2172 218.9394 0001241 102.5485 257.5646 15.08800949 33525,6918.0,95.44,540.723,539.006,0.0
53563.0,STARLINK-4561,PAYLOAD,2023-03-26 20:21:42,15.08806396,0.0001301,53.2163,217.4522,103.9412,256.1725,0.001381,0.00021739,0.0,0 STARLINK-4561,1 53563U 22101AN  23085.84841239  .00021739  00000-0  13810-2 0  9992,2 53563  53.2163 217.4522 0001301 103.9412 256.1725 15.08806396 33574,6917.983,95.44,540.748,538.948,0.0
53563.0,STARLINK-4561,PAYLOAD,2023-03-27 12:15:34,15.08853579,0.0001164,53.2168,214.4778,99.4245,260.6879,0.0017762,0.00028104,0.0,0 STARLINK-4561,1 53563U 22101AN  23086.51081296  .00028104  00000-0  17762-2 0  9999,2 53563  53.2168 214.4778 0001164  99.4245 260.6879 15.08853579 33675,6917.839,95.437,540.509,538.899,0.0
53563.0,STARLINK-4561,PAYLOAD,2023-03-27 13:50:57,15.0885982,0.0001176,53.2169,214.1806,95.3899,264.7227,0.001919,0.00030402,0.0,0 STARLINK-4561,1 53563U 22101AN  23086.57705204  .00030402  00000-0  19190-2 0  9998,2 53563  53.2169 214.1806 0001176  95.3899 264.7227 15.08859820 33686,6917.82,95.436,540.498,538.871,0.0
53563.0,STARLINK-4561,PAYLOAD,2023-03-27 20:12:29,15.08886262,0.0001221,53.2164,212.9904,101.0221,259.0909,0.0022222,0.00035301,0.0,0 STARLINK-4561,1 53563U 22101AN  23086.84200432  .00035301  00000-0  22222-2 0  9994,2 53563  53.2164 212.9904 0001221 101.0221 259.0909 15.08886262 33720,6917.739,95.435,540.449,538.759,0.0
53563.0,STARLINK-4561,PAYLOAD,2023-03-28 00:58:38,15.08855894,0.0001018,53.2172,212.0992,107.4114,252.6989,-0.00038671,-6.44e-05,0.0,0 STARLINK-4561,1 53563U 22101AN  23087.04072466 -.00006440  00000-0 -38671-3 0  9991,2 53563  53.2172 212.0992 0001018 107.4114 252.6989 15.08855894 33759,6917.832,95.437,540.401,538.993,0.0
53563.0,STARLINK-4561,PAYLOAD,2023-03-28 13:41:43,15.08849628,0.0001255,53.2159,209.7213,96.0573,264.0562,0.00095629,0.00014968,0.0,0 STARLINK-4561,1 53563U 22101AN  23087.57064717  .00014968  00000-0  95629-3 0  9997,2 53563  53.2159 209.7213 0001255  96.0573 264.0562 15.08849628 33839,6917.851,95.437,540.584,538.848,0.0
53563.0,STARLINK-4561,PAYLOAD,2023-03-28 18:27:53,15.08861526,0.0001432,53.2162,208.8286,97.1324,262.9831,0.0019489,0.00030883,0.0,0 STARLINK-4561,1 53563U 22101AN  23087.76936597  .00030883  00000-0  19489-2 0  9995,2 53563  53.2162 208.8286 0001432  97.1324 262.9831 15.08861526 33866,6917.815,95.436,540.67,538.689,0.0
53563.0,STARLINK-4561,PAYLOAD,2023-03-29 11:57:08,15.0885187,0.0001106,53.2159,205.5565,111.7879,248.3231,0.0019439,0.00030795,0.0,0 STARLINK-4561,1 53563U 22101AN  23088.49800983  .00030795  00000-0  19439-2 0  9992,2 53563  53.2159 205.5565 0001106 111.7879 248.3231 15.08851870 33977,6917.844,95.437,540.474,538.944,0.0
53563.0,STARLINK-4561,PAYLOAD,2023-03-29 19:54:03,15.08871004,0.0001097,53.215,204.0693,98.0091,262.1026,0.0021712,0.00034465,0.0,0 STARLINK-4561,1 53563U 22101AN  23088.82920638  .00034465  00000-0  21712-2 0  9994,2 53563  53.2150 204.0693 0001097  98.0091 262.1026 15.08871004 34020,6917.786,95.436,540.41,538.892,0.0
53563.0,STARLINK-4561,PAYLOAD,2023-03-30 19:44:50,15.0887957,0.0001613,53.2159,199.608,72.1463,287.9705,0.0023968,0.00038105,0.0,0 STARLINK-4561,1 53563U 22101AN  23089.82280552  .00038105  00000-0  23968-2 0  9999,2 53563  53.2159 199.6080 0001613  72.1463 287.9705 15.08879570 34179,6917.759,95.435,540.74,538.509,0.0
53563.0,STARLINK-4561,PAYLOAD,2023-03-31 11:38:41,15.08853947,0.0001354,53.2161,196.6319,102.2293,257.8851,0.0015215,0.00024019,0.0,0 STARLINK-4561,1 53563U 22101AN  23090.48520644  .00024019  00000-0  15215-2 0  9997,2 53563  53.2161 196.6319 0001354 102.2293 257.8851 15.08853947 34271,6917.838,95.437,540.639,538.766,0.0
53563.0,STARLINK-4561,PAYLOAD,2023-03-31 13:14:04,15.08860556,0.0001457,53.2161,196.3348,95.1622,264.9537,0.0021341,0.00033859,0.0,0 STARLINK-4561,1 53563U 22101AN  23090.55144654  .00033859  00000-0  21341-2 0  9997,2 53563  53.2161 196.3348 0001457  95.1622 264.9537 15.08860556 34285,6917.818,95.436,540.69,538.675,0.0
53563.0,STARLINK-4561,PAYLOAD,2023-04-01 11:29:29,15.08835115,0.0001506,53.2167,192.1698,119.8177,240.2965,0.0010454,0.00016386,0.0,0 STARLINK-4561,1 53563U 22101AN  23091.47881617  .00016386  00000-0  10454-2 0  9995,2 53563  53.2167 192.1698 0001506 119.8177 240.2965 15.08835115 34428,6917.895,95.438,540.802,538.718,0.0
53563.0,STARLINK-4561,PAYLOAD,2023-04-01 13:04:52,15.0883232,0.0001461,53.2168,191.8734,118.576,241.5379,0.00090321,0.00014113,0.0,0 STARLINK-4561,1 53563U 22101AN  23091.54505691  .00014113  00000-0  90321-3 0  9996,2 53563  53.2168 191.8734 0001461 118.5760 241.5379 15.08832320 34439,6917.904,95.438,540.78,538.758,0.0
53563.0,STARLINK-4561,PAYLOAD,2023-04-02 12:55:39,15.08863681,0.0001487,53.217,187.415,84.2785,275.8376,0.0010371,0.00016267,0.0,0 STARLINK-4561,1 53563U 22101AN  23092.53865358  .00016267  00000-0  10371-2 0  9993,2 53563  53.2170 187.4150 0001487  84.2785 275.8376 15.08863681 34586,6917.808,95.436,540.702,538.644,0.0
53563.0,STARLINK-4561,PAYLOAD,2023-04-02 16:06:25,15.08875844,0.0001517,53.2172,186.8218,71.709,288.4067,0.0013109,0.00020657,0.0,0 STARLINK-4561,1 53563U 22101AN  23092.67113025  .00020657  00000-0  13109-2 0  9995,2 53563  53.2172 186.8218 0001517  71.7090 288.4067 15.08875844 34604,6917.771,95.435,540.685,538.586,0.0
53563.0,STARLINK-4561,PAYLOAD,2023-04-03 11:11:03,15.08834539,0.0001212,53.2168,183.2536,91.7767,268.3364,-6.2363e-06,-3.87e-06,0.0,0 STARLINK-4561,1 53563U 22101AN  23093.46601839 -.00000387  00000-0 -62363-5 0  9997,2 53563  53.2168 183.2536 0001212  91.7767 268.3364 15.08834539 34724,6917.897,95.438,540.601,538.924,0.0
53563.0,STARLINK-4561,PAYLOAD,2023-04-03 15:57:13,15.08836705,0.0001186,53.2168,182.3617,92.9594,267.1534,0.00036234,5.483e-05,0.0,0 STARLINK-4561,1 53563U 22101AN  23093.66474004  .00005483  00000-0  36234-3 0  9997,2 53563  53.2168 182.3617 0001186  92.9594 267.1534 15.08836705 34751,6917.89,95.438,540.576,538.935,0.0
53563.0,STARLINK-4561,PAYLOAD,2023-04-04 11:01:51,15.08862604,0.0001247,53.2168,178.7951,87.1463,272.9672,0.001234,0.00019418,0.0,0 STARLINK-4561,1 53563U 22101AN  23094.45961827  .00019418  00000-0  12340-2 0  9993,2 53563  53.2168 178.7951 0001247  87.1463 272.9672 15.08862604 34877,6917.811,95.436,540.539,538.814,0.0
